ARIRANG-2 (KOMPSAT-2)   
1 29268U 06031A   17346.49999866  .00000088  00000-0  26702-4 0  9995
2 29268  98.0836 242.0722 0018263 160.2205 199.9710 14.62315386607051
